{
  "type": "FeatureCollection",
  "features": [
    {
      "type": "Feature",
      "geometry": {
        "type": "Point",
        "coordinates": [105.2671, -5.3971]
      },
      "properties": {
        "nama_sekolah": "SMA Negeri 1 Bandar Lampung",
        "jenis_sekolah": "SMA",
        "alamat": "Jl. Diponegoro No. 1",
        "kelurahan": "Tanjung Karang Pusat",
        "kecamatan": "Tanjung Karang",
        "jumlah_siswa": 850,
        "kontak": "0721-123456"
      }
    },
    {
      "type": "Feature",
      "geometry": {
        "type": "Point",
        "coordinates": [105.2801, -5.3841]
      },
      "properties": {
        "nama_sekolah": "SMA Negeri 2 Bandar Lampung",
        "jenis_sekolah": "SMA",
        "alamat": "Jl. Sultan Agung No. 5",
        "kelurahan": "Rawa Laut",
        "kecamatan": "Bandar Lampung",
        "jumlah_siswa": 920,
        "kontak": "0721-234567"
      }
    },
    {
      "type": "Feature",
      "geometry": {
        "type": "Point",
        "coordinates": [105.2721, -5.3921]
      },
      "properties": {
        "nama_sekolah": "SMA Negeri 3 Bandar Lampung",
        "jenis_sekolah": "SMA",
        "alamat": "Jl. Jendral Sudirman No. 12",
        "kelurahan": "Kota Karang",
        "kecamatan": "Tanjung Karang",
        "jumlah_siswa": 780,
        "kontak": "0721-345678"
      }
    },
    {
      "type": "Feature",
      "geometry": {
        "type": "Point",
        "coordinates": [105.2651, -5.4001]
      },
      "properties": {
        "nama_sekolah": "SMA Negeri 4 Bandar Lampung",
        "jenis_sekolah": "SMA",
        "alamat": "Jl. Ahmad Yani No. 20",
        "kelurahan": "Way Halim",
        "kecamatan": "Labuhan Ratu",
        "jumlah_siswa": 650,
        "kontak": "0721-456789"
      }
    },
    {
      "type": "Feature",
      "geometry": {
        "type": "Point",
        "coordinates": [105.2741, -5.3881]
      },
      "properties": {
        "nama_sekolah": "SMA Negeri 5 Bandar Lampung",
        "jenis_sekolah": "SMA",
        "alamat": "Jl. Pattimura No. 15",
        "kelurahan": "Segala Mider",
        "kecamatan": "Teluk Betung Barat",
        "jumlah_siswa": 720,
        "kontak": "0721-567890"
      }
    },
    {
      "type": "Feature",
      "geometry": {
        "type": "Point",
        "coordinates": [105.2781, -5.3951]
      },
      "properties": {
        "nama_sekolah": "SMA Swasta Xaverius 1",
        "jenis_sekolah": "SMA",
        "alamat": "Jl. Soekarno No. 8",
        "kelurahan": "Way Halim",
        "kecamatan": "Labuhan Ratu",
        "jumlah_siswa": 520,
        "kontak": "0721-678901"
      }
    },
    {
      "type": "Feature",
      "geometry": {
        "type": "Point",
        "coordinates": [105.2661, -5.3981]
      },
      "properties": {
        "nama_sekolah": "SMK Negeri 1 Bandar Lampung",
        "jenis_sekolah": "SMK",
        "alamat": "Jl. Sentot Alibasa No. 10",
        "kelurahan": "Tanjung Karang Pusat",
        "kecamatan": "Tanjung Karang",
        "jumlah_siswa": 1050,
        "kontak": "0721-123457"
      }
    },
    {
      "type": "Feature",
      "geometry": {
        "type": "Point",
        "coordinates": [105.2881, -5.3761]
      },
      "properties": {
        "nama_sekolah": "SMK Negeri 2 Bandar Lampung",
        "jenis_sekolah": "SMK",
        "alamat": "Jl. Diponegoro No. 88",
        "kelurahan": "Tanjung Karang Timur",
        "kecamatan": "Tanjung Karang",
        "jumlah_siswa": 920,
        "kontak": "0721-234568"
      }
    }
  ]
}
