{
  "type": "FeatureCollection",
  "name": "sma",
  "crs": { "type": "name", "properties": { "name": "urn:ogc:def:crs:OGC:1.3:CRS84" } },
  "features": [
    { "type": "Feature", "properties": { "full_id": "n1668695489", "osm_id": "1668695489", "osm_type": "node", "amenity": "school", "website": null, "operator:type": null, "operator": null, "addr:neighbourhood": null, "addr:district": null, "grades": null, "religion": null, "addr:subdistrict": null, "addr:province": null, "addr:postcode": null, "addr:housename": null, "addr:city": null, "addr:street": null, "addr:housenumber": null, "name": "SMA Negeri 2 Tanjungkarang", "education": "school" }, "geometry": { "type": "Point", "coordinates": [ 105.2551145, -5.4263276 ] } },
    { "type": "Feature", "properties": { "full_id": "n4585639190", "osm_id": "4585639190", "osm_type": "node", "amenity": "school", "website": null, "operator:type": null, "operator": null, "addr:neighbourhood": null, "addr:district": null, "grades": null, "religion": null, "addr:subdistrict": null, "addr:province": null, "addr:postcode": null, "addr:housename": null, "addr:city": null, "addr:street": "khairil anwar", "addr:housenumber": "105", "name": "Sma perintis 2 bandar lampunginin", "education": null }, "geometry": { "type": "Point", "coordinates": [ 105.2472523, -5.4176343 ] } },
    { "type": "Feature", "properties": { "full_id": "n4601761797", "osm_id": "4601761797", "osm_type": "node", "amenity": "school", "website": null, "operator:type": null, "operator": null, "addr:neighbourhood": null, "addr:district": null, "grades": null, "religion": null, "addr:subdistrict": null, "addr:province": null, "addr:postcode": null, "addr:housename": null, "addr:city": null, "addr:street": "khairil anwar", "addr:housenumber": "105", "name": "Sma perimtis 2 bandar lampung kh", "education": null }, "geometry": { "type": "Point", "coordinates": [ 105.2460704, -5.4185177 ] } },
    { "type": "Feature", "properties": { "full_id": "n12842038746", "osm_id": "12842038746", "osm_type": "node", "amenity": "school", "website": null, "operator:type": null, "operator": null, "addr:neighbourhood": null, "addr:district": null, "grades": null, "religion": null, "addr:subdistrict": null, "addr:province": null, "addr:postcode": null, "addr:housename": null, "addr:city": null, "addr:street": null, "addr:housenumber": null, "name": "anonymous opened 24 Mei 2023 SMA Negeri 5 Bandar Lampung", "education": null }, "geometry": { "type": "Point", "coordinates": [ 105.2847089, -5.3793738 ] } },
    { "type": "Feature", "properties": { "full_id": "manual_sman1", "osm_id": null, "osm_type": "node", "amenity": "school", "website": null, "operator:type": null, "operator": null, "addr:neighbourhood": null, "addr:district": "Enggal", "grades": null, "religion": null, "addr:subdistrict": "Pahoman", "addr:province": "Lampung", "addr:postcode": "35118", "addr:housename": null, "addr:city": "Bandar Lampung", "addr:street": "Jl. Jend. Sudirman No.41", "addr:housenumber": null, "name": "SMAN 1 Bandar Lampung", "education": "school" }, "geometry": { "type": "Point", "coordinates": [ 105.265241, -5.422381 ] } }
  ]
}